[{"OBJECT_NAME":"STARLINK-31217","OBJECT_ID":"2024-038P","EPOCH":"2026-03-08T23:45:45.294912","MEAN_MOTION":15.28001451,"ECCENTRICITY":0.00011044,"INCLINATION":43.0013,"RA_OF_ASC_NODE":293.1531,"ARG_OF_PERICENTER":271.0681,"MEAN_ANOMALY":89.0045,"EPHEMERIS_TYPE":0,"CLASSIFICATION_TYPE":"U","NORAD_CAT_ID":59036,"ELEMENT_SET_NO":999,"REV_AT_EPOCH":11583,"BSTAR":0.00037773728,"MEAN_MOTION_DOT":0.00010281,"MEAN_MOTION_DDOT":0},{"OBJECT_NAME":"OBJECT D","OBJECT_ID":"2021-102D","EPOCH":"2026-03-09T14:47:14.426880","MEAN_MOTION":15.2846442,"ECCENTRICITY":0.0009157,"INCLINATION":97.3342,"RA_OF_ASC_NODE":112.2633,"ARG_OF_PERICENTER":187.6206,"MEAN_ANOMALY":172.4897,"EPHEMERIS_TYPE":0,"CLASSIFICATION_TYPE":"U","NORAD_CAT_ID":49398,"ELEMENT_SET_NO":999,"REV_AT_EPOCH":23880,"BSTAR":0.00046011,"MEAN_MOTION_DOT":0.00012697,"MEAN_MOTION_DDOT":0}]
